ONEWEB-0387             
1 49313U 21090AL  25132.84049513  .00000035  00000+0  53298-4 0  9997
2 49313  87.9268 354.2125 0002143  82.4974 277.6403 13.20772507176971
ONEWEB-0388             
1 49314U 21090AM  25132.94353857  .00000102  00000+0  22292-3 0  9992
2 49314  87.9255  24.5444 0001915  76.4616 283.6730 13.19725018173623
ONEWEB-0389             
1 50469U 21132A   25132.93918340  .00000077  00000+0  16570-3 0  9998
2 50469  87.9053  85.5671 0002470  79.8502 280.2908 13.17649363165378
ONEWEB-0390             
1 50470U 21132B   25132.86491694  .00000086  00000+0  18925-3 0  9996
2 50470  87.9052  85.5888 0002187  89.6738 270.4644 13.17650230165366
ONEWEB-0391             
1 50471U 21132C   25132.86659407  .00000015  00000+0  53612-5 0  9991
2 50471  87.9061  85.5983 0002961  82.1550 277.9917 13.17651734165368
ONEWEB-0392             
1 50472U 21132D   25132.89697560 -.00000015  00000+0 -71410-4 0  9994
2 50472  87.9046  85.5450 0002507  80.1113 280.0301 13.17650770165406
ONEWEB-0393             
1 50473U 21132E   25132.87011237  .00000039  00000+0  68504-4 0  9998
2 50473  87.9057  85.5605 0002275  81.2543 278.8846 13.17651182165397
ONEWEB-0394             
1 50474U 21132F   25132.84931771 -.00000126  00000+0 -35224-3 0  9991
2 50474  87.9150  55.0040 0002071  76.3925 283.7437 13.18687857168832
